[{"OBJECT_NAME":"SHIYAN-20C (SY-20C)","OBJECT_ID":"2022-142A","EPOCH":"2026-03-09T23:50:52.089216","MEAN_MOTION":14.29489925,"ECCENTRICITY":0.00131159,"INCLINATION":59.9943,"RA_OF_ASC_NODE":268.1651,"ARG_OF_PERICENTER":188.0899,"MEAN_ANOMALY":171.9927,"EPHEMERIS_TYPE":0,"CLASSIFICATION_TYPE":"U","NORAD_CAT_ID":54214,"ELEMENT_SET_NO":999,"REV_AT_EPOCH":17551,"BSTAR":7.6576353e-5,"MEAN_MOTION_DOT":6.0e-7,"MEAN_MOTION_DDOT":0},{"OBJECT_NAME":"CZ-6A DEB","OBJECT_ID":"2024-140ADB","EPOCH":"2026-03-09T15:15:36.882720","MEAN_MOTION":14.28084454,"ECCENTRICITY":0.0032667,"INCLINATION":88.9955,"RA_OF_ASC_NODE":285.2328,"ARG_OF_PERICENTER":157.4019,"MEAN_ANOMALY":202.8622,"EPHEMERIS_TYPE":0,"CLASSIFICATION_TYPE":"U","NORAD_CAT_ID":61835,"ELEMENT_SET_NO":999,"REV_AT_EPOCH":7673,"BSTAR":0.0012497,"MEAN_MOTION_DOT":3.136e-5,"MEAN_MOTION_DDOT":0}]
